STARLINK-37938          
1 69568U 26135Y   26194.16668980 -.00029896  00000+0 -54975-3 0  9995
2 69568  97.2837 222.5587 0001346  88.8704 359.1867 15.49207688  5488
STARLINK-37924          
1 69569U 26135Z   26194.16668980 -.02443499  00000+0 -42808-1 0  9997
2 69569  97.2842 222.6536 0001637 103.1270 198.2515 15.54384133  5481
SHIJIAN-31 (SJ-31)      
1 69570U 26136A   26193.98560255 -.00000460  00000+0  00000+0 0  9995
2 69570  63.4865 353.4225 6940140 171.8353 212.2967  1.92227794   582
CZ-3B R/B               
1 69571U 26136B   26193.79498036  .00377764 -15616-6  55613-3 0  9996
2 69571  63.4312 350.9647 7259125 171.4997 216.3948  2.37752219   621
GUOWANG OBJECT A        
1 69572U 26137A   26193.89246529 -.00000143  00000+0  24502-5 0  9990
2 69572  49.9997 153.0717 0012495 311.3863  48.5960 13.89812741  3591
GUOWANG OBJECT B        
1 69573U 26137B   26190.65385973 -.00000214  00000+0 -55136-4 0  9995
2 69573  50.0016 165.9303 0011859 298.8434  61.1273 13.89803849  3155
GUOWANG OBJECT C        
1 69574U 26137C   26193.88847204 -.00000085  00000+0  48994-4 0  9993
2 69574  49.9966 153.0342 0011888 311.3954  48.5921 13.89815862  3605
GUOWANG OBJECT D        
1 69575U 26137D   26190.65162700 -.00000168  00000+0 -17667-4 0  9993
2 69575  49.9953 165.9027 0011086 299.2996  60.6794 13.89827781  3150
GUOWANG OBJECT E        
1 69576U 26137E   26193.02348711 -.00000204  00000+0 -46563-4 0  9994
2 69576  50.0038 156.4799 0011224 310.0552  49.9361 13.89824941  3484
GUOWANG OBJECT F        
1 69577U 26137F   26190.64981928 -.00000215  00000+0 -55984-4 0  9992
2 69577  50.0025 165.9144 0010849 302.1836  57.8010 13.89809494  3158
GUOWANG OBJECT G        
1 69578U 26137G   26192.30278168 -.00000142  00000+0  35461-5 0  9990
2 69578  49.9952 159.3085 0010806 307.5258  52.4657 13.89795025  3383
GUOWANG OBJECT H        
1 69579U 26137H   26191.00768142 -.00000175  00000+0 -23862-4 0  9991
2 69579  50.0012 164.4679 0010249 306.3680  53.6272 13.89776278  3203
GUOWANG OBJECT J        
1 69580U 26137J   26178.27848690  .00000022  00000+0  13174-3 0  9997
2 69580  49.9961 215.0979 0011832 257.3150 102.6427 13.91997107  1436
CZ-12 R/B               
1 69581U 26137K   26193.99676285 -.00000099  00000+0  28993-4 0  9994
2 69581  49.9888 148.8786 0077444 202.1727 157.5824 14.11694303  3654
CENTISPACE-1 GROUP 05 O*
1 69582U 26138A   26193.98796889 -.00000065  00000+0  44881-4 0  9995
2 69582  55.1388 185.9028 0011274 339.5644  20.4877 14.15470900  3679
CENTISPACE-1 GROUP 05 O*
1 69583U 26138B   26193.49037940 -.00000178  00000+0 -12217-4 0  9992
2 69583  55.1381 187.7094 0010208 338.8919  21.1632 14.15650579  3601
CENTISPACE-1 GROUP 05 O*
1 69584U 26138C   26193.48886013 -.00000223  00000+0 -35132-4 0  9997
2 69584  55.1387 187.7101 0010131 340.4978  19.5607 14.15734235  3601
CENTISPACE-1 GROUP 05 O*
1 69585U 26138D   26193.97990538 -.00000314  00000+0 -81047-4 0  9997
2 69585  55.1385 185.8593 0009790 340.9309  19.1298 14.15919675  3678
CENTISPACE-1 GROUP 05 O*
1 69586U 26138E   26193.97869604 -.00000314  00000+0 -81159-4 0  9991
2 69586  55.1377 185.8600 0009500 341.3569  18.7056 14.15986721  3674
CENTISPACE-1 GROUP 05 O*
1 69587U 26138F   26193.97992150 -.00000292  00000+0 -69905-4 0  9995
2 69587  55.1382 185.8680 0009436 345.5018  14.5684 14.15909909  3676
CENTISPACE-1 GROUP 05 O*
1 69588U 26138G   26193.41218649 -.00000375  00000+0 -11167-3 0  9997
2 69588  55.1383 187.9363 0008629 344.0005  16.0696 14.16073930  3590
SPACEMOBILE-008         
1 69589U 26139A   26193.84053977 -.00000102  00000+0  11217-4 0  9991
2 69589  52.9944 146.0977 0004970  50.9222 309.2211 15.12800321  3864
SPACEMOBILE-009         
1 69590U 26139B   26193.90840601 -.00000102  00000+0  11260-4 0  9996
2 69590  52.9936 145.8037 0005200  46.7752 313.3672 15.12693667  3870
SPACEMOBILE-010         
1 69591U 26139C   26193.97734236 -.00000049  00000+0  14261-4 0  9994
2 69591  52.9943 145.5242 0005131  38.7301 321.4057 15.12525132  3898
KUIPER-00423            
1 69592U 26140A   26193.45450253  .00015209  00000+0  40163-3 0  9996
2 69592  51.8794 276.3300 0013207 261.6872  98.2618 15.38571092  5126
KUIPER-00428            
1 69593U 26140B   26193.62020925  .00012306  00000+0  34550-3 0  9993
2 69593  51.8810 275.9284 0008046  21.5732 338.5592 15.36916079  5144
KUIPER-00481            
1 69594U 26140C   26193.59462052  .00011663  00000+0  31694-3 0  9992
2 69594  51.8774 275.7590 0010947 272.1562  87.8171 15.37965662  5140
KUIPER-00490            
1 69595U 26140D   26193.60429208  .00016912  00000+0  45563-3 0  9993
2 69595  51.8779 275.8189 0006944 332.5032  27.5587 15.37923244  5148
KUIPER-00493            
1 69596U 26140E   26193.62503321  .00012643  00000+0  35783-3 0  9995
2 69596  51.8809 275.9590 0007700  28.7780 331.3630 15.36640125  5143
KUIPER-00496            
1 69597U 26140F   26193.58013023  .00023977  00000+0  71988-3 0  9995
2 69597  51.8793 276.3965 0010283  40.9395 319.2361 15.34267587  5135
